[{"OBJECT_NAME":"HAWK-11B","OBJECT_ID":"2024-247C","EPOCH":"2026-03-09T10:44:06.809856","MEAN_MOTION":15.2884707,"ECCENTRICITY":0.00046902,"INCLINATION":45.0161,"RA_OF_ASC_NODE":115.761,"ARG_OF_PERICENTER":333.0326,"MEAN_ANOMALY":27.0314,"EPHEMERIS_TYPE":0,"CLASSIFICATION_TYPE":"U","NORAD_CAT_ID":62379,"ELEMENT_SET_NO":999,"REV_AT_EPOCH":6773,"BSTAR":0.00032841927,"MEAN_MOTION_DOT":9.093e-5,"MEAN_MOTION_DDOT":0},{"OBJECT_NAME":"STARLINK-36050","OBJECT_ID":"2025-270Q","EPOCH":"2026-03-09T22:59:12.405408","MEAN_MOTION":15.27586635,"ECCENTRICITY":6.285e-5,"INCLINATION":43.0009,"RA_OF_ASC_NODE":54.9482,"ARG_OF_PERICENTER":313.1805,"MEAN_ANOMALY":46.8994,"EPHEMERIS_TYPE":0,"CLASSIFICATION_TYPE":"U","NORAD_CAT_ID":66602,"ELEMENT_SET_NO":999,"REV_AT_EPOCH":1764,"BSTAR":0.00088207967,"MEAN_MOTION_DOT":0.00024095,"MEAN_MOTION_DDOT":0}]
